{"type": "FeatureCollection", "features": [ {"type": "Feature", "properties": {"norad_id": 39574, "name": "GPM-CORE", "group": "resource", "lat": -47.30519885500513, "lon": 76.79127187156087, "alt_km": 430.18124675689705, "timestamp": "2025-12-08T15:42:49.435321+00:00", "meta": {"OBJECT_NAME": "GPM-CORE", "OBJECT_ID": "2014-009C", "EPOCH": "2025-12-08T05:23:04.613280", "MEAN_MOTION": 15.45399454, "ECCENTRICITY": 0.00105033, "INCLINATION": 64.9737, "RA_OF_ASC_NODE": 227.8099, "ARG_OF_PERICENTER": 270.08, "MEAN_ANOMALY": 89.9137, "EPHEMERIS_TYPE": 0, "CLASSIFICATION_TYPE": "U", "NORAD_CAT_ID": 39574, "ELEMENT_SET_NO": 999, "REV_AT_EPOCH": 66831, "BSTAR": 0.00037003743, "MEAN_MOTION_DOT": 0.0001761, "MEAN_MOTION_DDOT": 0}, "tle": {"line1": "1 39574U 14009C   25342.22435895  .00017610  00000+0  37004-3 0  9997", "line2": "2 39574  64.9737 227.8099 0010503 270.0800  89.9137 15.45399454668319"}}, "geometry": {"type": "Point", "coordinates": [76.79127187156087, -47.30519885500513]}}, {"type": "Feature", "properties": {"norad_id": 39634, "name": "SENTINEL-1A", "group": "resource", "lat": -78.80359103457015, "lon": 34.56822677628298, "alt_km": 703.9622214207848, "timestamp": "2025-12-08T15:42:49.435331+00:00", "meta": {"OBJECT_NAME": "SENTINEL-1A", "OBJECT_ID": "2014-016A", "EPOCH": "2025-12-08T06:12:58.914144", "MEAN_MOTION": 14.59200089, "ECCENTRICITY": 0.00012469, "INCLINATION": 98.1803, "RA_OF_ASC_NODE": 347.5666, "ARG_OF_PERICENTER": 89.2628, "MEAN_ANOMALY": 270.8714, "EPHEMERIS_TYPE": 0, "CLASSIFICATION_TYPE": "U", "NORAD_CAT_ID": 39634, "ELEMENT_SET_NO": 999, "REV_AT_EPOCH": 62217, "BSTAR": 9.3038675e-05, "MEAN_MOTION_DOT": 3.93e-06, "MEAN_MOTION_DDOT": 0}, "tle": {"line1": "1 39634U 14016A   25342.25901521  .00000393  00000+0  93039-4 0  9990", "line2": "2 39634  98.1803 347.5666 0001246  89.2628 270.8714 14.59200089622176"}}, "geometry": {"type": "Point", "coordinates": [34.56822677628298, -78.80359103457015]}}, {"type": "Feature", "properties": {"norad_id": 39731, "name": "KAZEOSAT 1", "group": "resource", "lat": 35.6128102595911, "lon": -119.31198376537887, "alt_km": 748.7127051910165, "timestamp": "2025-12-08T15:42:49.435341+00:00", "meta": {"OBJECT_NAME": "KAZEOSAT 1", "OBJECT_ID": "2014-024A", "EPOCH": "2025-12-08T06:43:21.612864", "MEAN_MOTION": 14.42059009, "ECCENTRICITY": 0.00010799, "INCLINATION": 98.344, "RA_OF_ASC_NODE": 54.2876, "ARG_OF_PERICENTER": 99.973, "MEAN_ANOMALY": 260.1581, "EPHEMERIS_TYPE": 0, "CLASSIFICATION_TYPE": "U", "NORAD_CAT_ID": 39731, "ELEMENT_SET_NO": 999, "REV_AT_EPOCH": 61104, "BSTAR": 0.00016708421, "MEAN_MOTION_DOT": 5.06e-06, "MEAN_MOTION_DDOT": 0}, "tle": {"line1": "1 39731U 14024A   25342.28011126  .00000506  00000+0  16708-3 0  9996", "line2": "2 39731  98.3440  54.2876 0001079  99.9730 260.1581 14.42059009611048"}}, "geometry": {"type": "Point", "coordinates": [-119.31198376537887, 35.6128102595911]}}, {"type": "Feature", "properties": {"norad_id": 39766, "name": "ALOS-2", "group": "resource", "lat": -18.77582025611433, "lon": -105.15435167488876, "alt_km": 636.2185818753751, "timestamp": "2025-12-08T15:42:49.435352+00:00", "meta": {"OBJECT_NAME": "ALOS-2", "OBJECT_ID": "2014-029A", "EPOCH": "2025-12-08T06:42:06.784416", "MEAN_MOTION": 14.7946434, "ECCENTRICITY": 0.00014613, "INCLINATION": 97.9231, "RA_OF_ASC_NODE": 77.1892, "ARG_OF_PERICENTER": 104.0021, "MEAN_ANOMALY": 256.1354, "EPHEMERIS_TYPE": 0, "CLASSIFICATION_TYPE": "U", "NORAD_CAT_ID": 39766, "ELEMENT_SET_NO": 999, "REV_AT_EPOCH": 62335, "BSTAR": 0.0004711097, "MEAN_MOTION_DOT": 3.468e-05, "MEAN_MOTION_DDOT": 0}, "tle": {"line1": "1 39766U 14029A   25342.27924519  .00003468  00000+0  47111-3 0  9999", "line2": "2 39766  97.9231  77.1892 0001461 104.0021 256.1354 14.79464340623355"}}, "geometry": {"type": "Point", "coordinates": [-105.15435167488876, -18.77582025611433]}}, {"type": "Feature", "properties": {"norad_id": 40010, "name": "KAZEOSAT 2", "group": "resource", "lat": 25.083673749189202, "lon": -176.3798467238661, "alt_km": 617.4067157150976, "timestamp": "2025-12-08T15:42:49.435362+00:00", "meta": {"OBJECT_NAME": "KAZEOSAT 2", "OBJECT_ID": "2014-033A", "EPOCH": "2025-12-08T05:53:52.808640", "MEAN_MOTION": 14.85157346, "ECCENTRICITY": 0.00074725, "INCLINATION": 97.5514, "RA_OF_ASC_NODE": 186.7924, "ARG_OF_PERICENTER": 223.0044, "MEAN_ANOMALY": 137.0588, "EPHEMERIS_TYPE": 0, "CLASSIFICATION_TYPE": "U", "NORAD_CAT_ID": 40010, "ELEMENT_SET_NO": 999, "REV_AT_EPOCH": 62061, "BSTAR": 0.0001743159, "MEAN_MOTION_DOT": 1.443e-05, "MEAN_MOTION_DDOT": 0}, "tle": {"line1": "1 40010U 14033A   25342.24575010  .00001443  00000+0  17432-3 0  9997", "line2": "2 40010  97.5514 186.7924 0007472 223.0044 137.0588 14.85157346620611"}}, "geometry": {"type": "Point", "coordinates": [-176.3798467238661, 25.083673749189202]}}, {"type": "Feature", "properties": {"norad_id": 40011, "name": "HODOYOSHI-4", "group": "resource", "lat": 76.7542288178137, "lon": 137.48962247256011, "alt_km": 610.0269816483087, "timestamp": "2025-12-08T15:42:49.435391+00:00", "meta": {"OBJECT_NAME": "HODOYOSHI-4", "OBJECT_ID": "2014-033B", "EPOCH": "2025-12-08T05:40:15.852576", "MEAN_MOTION": 14.87456943, "ECCENTRICITY": 0.00228918, "INCLINATION": 97.5416, "RA_OF_ASC_NODE": 171.3425, "ARG_OF_PERICENTER": 215.9174, "MEAN_ANOMALY": 144.0505, "EPHEMERIS_TYPE": 0, "CLASSIFICATION_TYPE": "U", "NORAD_CAT_ID": 40011, "ELEMENT_SET_NO": 999, "REV_AT_EPOCH": 62041, "BSTAR": 0.00032015229, "MEAN_MOTION_DOT": 2.861e-05, "MEAN_MOTION_DDOT": 0}, "tle": {"line1": "1 40011U 14033B   25342.23629459  .00002861  00000+0  32015-3 0  9993", "line2": "2 40011  97.5416 171.3425 0022891 215.9174 144.0505 14.87456943620417"}}, "geometry": {"type": "Point", "coordinates": [137.48962247256011, 76.7542288178137]}}, {"type": "Feature", "properties": {"norad_id": 40013, "name": "DEIMOS-2", "group": "resource", "lat": 23.776010501519522, "lon": 41.96487079838927, "alt_km": 587.9470800189993, "timestamp": "2025-12-08T15:42:49.435406+00:00", "meta": {"OBJECT_NAME": "DEIMOS-2", "OBJECT_ID": "2014-033D", "EPOCH": "2025-12-08T05:21:59.264640", "MEAN_MOTION": 14.92944737, "ECCENTRICITY": 9.812e-05, "INCLINATION": 97.607, "RA_OF_ASC_NODE": 218.1727, "ARG_OF_PERICENTER": 95.2974, "MEAN_ANOMALY": 264.8358, "EPHEMERIS_TYPE": 0, "CLASSIFICATION_TYPE": "U", "NORAD_CAT_ID": 40013, "ELEMENT_SET_NO": 999, "REV_AT_EPOCH": 60922, "BSTAR": 0.00037925808, "MEAN_MOTION_DOT": 3.883e-05, "MEAN_MOTION_DDOT": 0}, "tle": {"line1": "1 40013U 14033D   25342.22360260  .00003883  00000+0  37926-3 0  9997", "line2": "2 40013  97.6070 218.1727 0000981  95.2974 264.8358 14.92944737609226"}}, "geometry": {"type": "Point", "coordinates": [41.96487079838927, 23.776010501519522]}}, {"type": "Feature", "properties": {"norad_id": 40015, "name": "HODOYOSHI-3", "group": "resource", "lat": 43.56898369095091, "lon": 141.35109571151057, "alt_km": 628.1914006624929, "timestamp": "2025-12-08T15:42:49.435417+00:00", "meta": {"OBJECT_NAME": "HODOYOSHI-3", "OBJECT_ID": "2014-033F", "EPOCH": "2025-12-08T00:57:31.692960", "MEAN_MOTION": 14.8478109, "ECCENTRICITY": 0.00318137, "INCLINATION": 97.6198, "RA_OF_ASC_NODE": 148.0795, "ARG_OF_PERICENTER": 264.012, "MEAN_ANOMALY": 95.747, "EPHEMERIS_TYPE": 0, "CLASSIFICATION_TYPE": "U", "NORAD_CAT_ID": 40015, "ELEMENT_SET_NO": 999, "REV_AT_EPOCH": 61925, "BSTAR": 0.0002930471, "MEAN_MOTION_DOT": 2.456e-05, "MEAN_MOTION_DDOT": 0}, "tle": {"line1": "1 40015U 14033F   25342.03995015  .00002456  00000+0  29305-3 0  9997", "line2": "2 40015  97.6198 148.0795 0031813 264.0120  95.7470 14.84781090619254"}}, "geometry": {"type": "Point", "coordinates": [141.35109571151057, 43.56898369095091]}}, {"type": "Feature", "properties": {"norad_id": 40053, "name": "SPOT 7", "group": "resource", "lat": 59.05597404770977, "lon": -121.44924349418997, "alt_km": 684.1482800450876, "timestamp": "2025-12-08T15:42:49.435428+00:00", "meta": {"OBJECT_NAME": "SPOT 7", "OBJECT_ID": "2014-034A", "EPOCH": "2025-12-08T06:56:48.508512", "MEAN_MOTION": 14.60725837, "ECCENTRICITY": 0.00015312, "INCLINATION": 98.0913, "RA_OF_ASC_NODE": 44.4675, "ARG_OF_PERICENTER": 94.1496, "MEAN_ANOMALY": 265.988, "EPHEMERIS_TYPE": 0, "CLASSIFICATION_TYPE": "U", "NORAD_CAT_ID": 40053, "ELEMENT_SET_NO": 999, "REV_AT_EPOCH": 60926, "BSTAR": 0.00024569324, "MEAN_MOTION_DOT": 1.152e-05, "MEAN_MOTION_DDOT": 0}, "tle": {"line1": "1 40053U 14034A   25342.28945033  .00001152  00000+0  24569-3 0  9991", "line2": "2 40053  98.0913  44.4675 0001531  94.1496 265.9880 14.60725837609261"}}, "geometry": {"type": "Point", "coordinates": [-121.44924349418997, 59.05597404770977]}}, {"type": "Feature", "properties": {"norad_id": 40072, "name": "SKYSAT-B", "group": "resource", "lat": 23.948635233024316, "lon": -77.60024738163587, "alt_km": 608.829545045829, "timestamp": "2025-12-08T15:42:49.435439+00:00", "meta": {"OBJECT_NAME": "SKYSAT-B", "OBJECT_ID": "2014-037D", "EPOCH": "2025-12-08T07:31:54.710688", "MEAN_MOTION": 14.87301914, "ECCENTRICITY": 0.00057909, "INCLINATION": 98.3606, "RA_OF_ASC_NODE": 285.7861, "ARG_OF_PERICENTER": 163.4218, "MEAN_ANOMALY": 196.7187, "EPHEMERIS_TYPE": 0, "CLASSIFICATION_TYPE": "U", "NORAD_CAT_ID": 40072, "ELEMENT_SET_NO": 999, "REV_AT_EPOCH": 61758, "BSTAR": 0.00035967897, "MEAN_MOTION_DOT": 3.185e-05, "MEAN_MOTION_DDOT": 0}, "tle": {"line1": "1 40072U 14037D   25342.31382767  .00003185  00000+0  35968-3 0  9991", "line2": "2 40072  98.3606 285.7861 0005790 163.4218 196.7187 14.87301914617584"}}, "geometry": {"type": "Point", "coordinates": [-77.60024738163587, 23.948635233024316]}}]}